[{"OBJECT_NAME":"SDA_1675","OBJECT_ID":"2025-230M","EPOCH":"2026-03-09T17:36:17.756640","MEAN_MOTION":13.84748964,"ECCENTRICITY":0.00037161,"INCLINATION":81.2979,"RA_OF_ASC_NODE":303.94,"ARG_OF_PERICENTER":72.4349,"MEAN_ANOMALY":287.7214,"EPHEMERIS_TYPE":0,"CLASSIFICATION_TYPE":"U","NORAD_CAT_ID":65985,"ELEMENT_SET_NO":999,"REV_AT_EPOCH":2004,"BSTAR":0.00019794423,"MEAN_MOTION_DOT":2.35e-6,"MEAN_MOTION_DDOT":0},{"OBJECT_NAME":"CZ-4B DEB","OBJECT_ID":"2008-026E","EPOCH":"2026-03-09T09:07:00.254784","MEAN_MOTION":13.82175156,"ECCENTRICITY":0.0219598,"INCLINATION":98.7369,"RA_OF_ASC_NODE":114.3747,"ARG_OF_PERICENTER":3.1681,"MEAN_ANOMALY":51.7178,"EPHEMERIS_TYPE":0,"CLASSIFICATION_TYPE":"U","NORAD_CAT_ID":37573,"ELEMENT_SET_NO":999,"REV_AT_EPOCH":87816,"BSTAR":0.00038198739,"MEAN_MOTION_DOT":4.55e-6,"MEAN_MOTION_DDOT":0}]
